start=new Date('2023-05-12T00:00:00.000Z').valueOf();
sats=[{"OBJECT_NAME":"STARLINK-3047","ARG_OF_PERICENTER":"261.1484","TLE_LINE1":"1 49174U 21082AW  23131.89079875  .00010161  00000-0  86774-3 0  9995","CENTER_NAME":"EARTH","TIME_SYSTEM":"UTC","DECAY_DATE":null,"MEAN_ANOMALY":"98.9246","RCS_SIZE":"LARGE","GP_ID":"231611214","FILE":"3905432","COUNTRY_CODE":"US","INCLINATION":"70.0006","SEMIMAJOR_AXIS":"6951.534","RA_OF_ASC_NODE":"358.3469","EPHEMERIS_TYPE":"0","OBJECT_TYPE":"PAYLOAD","REV_AT_EPOCH":"9294","OBJECT_ID":"2021-082AW","ECCENTRICITY":"0.00037810","EPOCH":"2023-05-11T21:22:45.012000","BSTAR":"0.00086774000000","MEAN_MOTION_DOT":"0.00010161","APOAPSIS":"576.027","REF_FRAME":"TEME","MEAN_MOTION":"14.97896515","TLE_LINE2":"2 49174  70.0006 358.3469 0003781 261.1484  98.9246 14.97896515 92940","PERIAPSIS":"570.770","SITE":"AFWTR","MEAN_MOTION_DDOT":"0.0000000000000","CLASSIFICATION_TYPE":"U","MEAN_ELEMENT_THEORY":"SGP4","LAUNCH_DATE":"2021-09-14","PERIOD":"96.135","ELEMENT_SET_NO":"999","NORAD_CAT_ID":"49174"},{"NORAD_CAT_ID":"49175","ELEMENT_SET_NO":"999","MEAN_ELEMENT_THEORY":"SGP4","LAUNCH_DATE":"2021-09-14","PERIOD":"96.107","SITE":"AFWTR","PERIAPSIS":"570.071","MEAN_MOTION_DDOT":"0.0000000000000","CLASSIFICATION_TYPE":"U","MEAN_MOTION":"14.98327728","TLE_LINE2":"2 49175  70.0010 358.5588 0002869 269.3854  90.6976 14.98327728 91761","APOAPSIS":"574.059","REF_FRAME":"TEME","BSTAR":"0.00004751600000","MEAN_MOTION_DOT":"0.00000474","EPOCH":"2023-05-11T20:59:08.675808","REV_AT_EPOCH":"9176","ECCENTRICITY":"0.00028690","OBJECT_ID":"2021-082AX","COUNTRY_CODE":"US","INCLINATION":"70.0010","RA_OF_ASC_NODE":"358.5588","EPHEMERIS_TYPE":"0","SEMIMAJOR_AXIS":"6950.200","OBJECT_TYPE":"PAYLOAD","DECAY_DATE":null,"MEAN_ANOMALY":"90.6976","RCS_SIZE":"LARGE","GP_ID":"231636705","FILE":"3905576","TIME_SYSTEM":"UTC","CENTER_NAME":"EARTH","TLE_LINE1":"1 49175U 21082AX  23131.87440597  .00000474  00000-0  47516-4 0  9995","OBJECT_NAME":"STARLINK-3087","ARG_OF_PERICENTER":"269.3854"},{"REV_AT_EPOCH":"9225","ECCENTRICITY":"0.00032630","OBJECT_ID":"2021-082AY","COUNTRY_CODE":"US","INCLINATION":"69.9992","EPHEMERIS_TYPE":"0","SEMIMAJOR_AXIS":"6950.194","RA_OF_ASC_NODE":"338.5795","OBJECT_TYPE":"PAYLOAD","DECAY_DATE":null,"MEAN_ANOMALY":"91.5904","RCS_SIZE":"LARGE","GP_ID":"231635453","FILE":"3905576","TIME_SYSTEM":"UTC","CENTER_NAME":"EARTH","TLE_LINE1":"1 49176U 21082AY  23131.86165299  .00001732  00000-0  15291-3 0  9990","OBJECT_NAME":"STARLINK-3069","ARG_OF_PERICENTER":"268.4881","NORAD_CAT_ID":"49176","ELEMENT_SET_NO":"999","MEAN_ELEMENT_THEORY":"SGP4","LAUNCH_DATE":"2021-09-14","PERIOD":"96.107","SITE":"AFWTR","PERIAPSIS":"569.791","MEAN_MOTION_DDOT":"0.0000000000000","CLASSIFICATION_TYPE":"U","MEAN_MOTION":"14.98329632","TLE_LINE2":"2 49176  69.9992 338.5795 0003263 268.4881  91.5904 14.98329632 92257","REF_FRAME":"TEME","APOAPSIS":"574.327","BSTAR":"0.00015291000000","MEAN_MOTION_DOT":"0.00001732","EPOCH":"2023-05-11T20:40:46.818336"},{"EPOCH":"2023-05-11T17:58:33.108384","MEAN_MOTION_DOT":"-0.00000082","BSTAR":"0.00000089975000","REF_FRAME":"TEME","APOAPSIS":"573.962","MEAN_MOTION":"14.98326436","TLE_LINE2":"2 49177  70.0014 338.8786 0002724 246.2858 113.8015 14.98326436 93439","MEAN_MOTION_DDOT":"0.0000000000000","PERIAPSIS":"570.176","SITE":"AFWTR","CLASSIFICATION_TYPE":"U","MEAN_ELEMENT_THEORY":"SGP4","LAUNCH_DATE":"2021-09-14","PERIOD":"96.107","ELEMENT_SET_NO":"999","NORAD_CAT_ID":"49177","OBJECT_NAME":"STARLINK-3103","ARG_OF_PERICENTER":"246.2858","TLE_LINE1":"1 49177U 21082AZ  23131.74899431 -.00000082  00000-0  89975-6 0  9991","CENTER_NAME":"EARTH","TIME_SYSTEM":"UTC","RCS_SIZE":"LARGE","DECAY_DATE":null,"MEAN_ANOMALY":"113.8015","FILE":"3905576","GP_ID":"231635703","INCLINATION":"70.0014","COUNTRY_CODE":"US","OBJECT_TYPE":"PAYLOAD","EPHEMERIS_TYPE":"0","RA_OF_ASC_NODE":"338.8786","SEMIMAJOR_AXIS":"6950.204","REV_AT_EPOCH":"9343","OBJECT_ID":"2021-082AZ","ECCENTRICITY":"0.00027240"},{"EPHEMERIS_TYPE":"0","RA_OF_ASC_NODE":"18.2880","SEMIMAJOR_AXIS":"6950.208","OBJECT_TYPE":"PAYLOAD","COUNTRY_CODE":"US","INCLINATION":"70.0014","GP_ID":"231636455","FILE":"3905576","DECAY_DATE":null,"MEAN_ANOMALY":"92.4969","RCS_SIZE":"LARGE","ECCENTRICITY":"0.00027500","OBJECT_ID":"2021-082BA","REV_AT_EPOCH":"9244","TLE_LINE1":"1 49178U 21082BA  23131.97477675 -.00000303  00000-0 -17612-4 0  9993","ARG_OF_PERICENTER":"267.5875","OBJECT_NAME":"STARLINK-3086","TIME_SYSTEM":"UTC","CENTER_NAME":"EARTH","PERIOD":"96.107","LAUNCH_DATE":"2021-09-14","MEAN_ELEMENT_THEORY":"SGP4","CLASSIFICATION_TYPE":"U","PERIAPSIS":"570.162","SITE":"AFWTR","MEAN_MOTION_DDOT":"0.0000000000000","NORAD_CAT_ID":"49178","ELEMENT_SET_NO":"999","BSTAR":"-0.00001761200000","MEAN_MOTION_DOT":"-0.00000303","EPOCH":"2023-05-11T23:23:40.711200","MEAN_MOTION":"14.98325107","TLE_LINE2":"2 49178  70.0014  18.2880 0002750 267.5875  92.4969 14.98325107 92442","APOAPSIS":"573.984","REF_FRAME":"TEME"},{"OBJECT_NAME":"STARLINK-3043","ARG_OF_PERICENTER":"271.0766","TLE_LINE1":"1 49179U 21082BB  23131.87000664 -.00000559  00000-0 -39065-4 0  9992","CENTER_NAME":"EARTH","TIME_SYSTEM":"UTC","RCS_SIZE":"LARGE","DECAY_DATE":null,"MEAN_ANOMALY":"89.0071","FILE":"3905576","GP_ID":"231636206","INCLINATION":"70.0002","COUNTRY_CODE":"US","OBJECT_TYPE":"PAYLOAD","SEMIMAJOR_AXIS":"6950.217","EPHEMERIS_TYPE":"0","RA_OF_ASC_NODE":"338.5507","REV_AT_EPOCH":"9225","OBJECT_ID":"2021-082BB","ECCENTRICITY":"0.00028120","EPOCH":"2023-05-11T20:52:48.573696","MEAN_MOTION_DOT":"-0.00000559","BSTAR":"-0.00003906500000","APOAPSIS":"574.036","REF_FRAME":"TEME","MEAN_MOTION":"14.98322201","TLE_LINE2":"2 49179  70.0002 338.5507 0002812 271.0766  89.0071 14.98322201 92259","MEAN_MOTION_DDOT":"0.0000000000000","PERIAPSIS":"570.128","SITE":"AFWTR","CLASSIFICATION_TYPE":"U","MEAN_ELEMENT_THEORY":"SGP4","LAUNCH_DATE":"2021-09-14","PERIOD":"96.107","ELEMENT_SET_NO":"999","NORAD_CAT_ID":"49179"},{"EPOCH":"2023-05-11T22:05:14.139456","BSTAR":"0.00005743700000","MEAN_MOTION_DOT":"0.00000592","APOAPSIS":"574.220","REF_FRAME":"TEME","TLE_LINE2":"2 49180  69.9998 358.4335 0003079 268.6044  91.4762 14.98322690 92941","MEAN_MOTION":"14.98322690","SITE":"AFWTR","PERIAPSIS":"569.941","MEAN_MOTION_DDOT":"0.0000000000000","CLASSIFICATION_TYPE":"U","MEAN_ELEMENT_THEORY":"SGP4","PERIOD":"96.107","LAUNCH_DATE":"2021-09-14","ELEMENT_SET_NO":"999","NORAD_CAT_ID":"49180","OBJECT_NAME":"STARLINK-3050","ARG_OF_PERICENTER":"268.6044","TLE_LINE1":"1 49180U 21082BC  23131.92030254  .00000592  00000-0  57437-4 0  9996","CENTER_NAME":"EARTH","TIME_SYSTEM":"UTC","DECAY_DATE":null,"MEAN_ANOMALY":"91.4762","RCS_SIZE":"LARGE","GP_ID":"231634954","FILE":"3905576","COUNTRY_CODE":"US","INCLINATION":"69.9998","RA_OF_ASC_NODE":"358.4335","SEMIMAJOR_AXIS":"6950.215","EPHEMERIS_TYPE":"0","OBJECT_TYPE":"PAYLOAD","REV_AT_EPOCH":"9294","OBJECT_ID":"2021-082BC","ECCENTRICITY":"0.00030790"},{"TLE_LINE2":"2 49181  70.0005  18.3478 0002967 267.0276  93.0544 14.98321986 92470","MEAN_MOTION":"14.98321986","REF_FRAME":"TEME","APOAPSIS":"574.145","MEAN_MOTION_DOT":"0.00000042","BSTAR":"0.00001132000000","EPOCH":"2023-05-11T22:59:38.864544","NORAD_CAT_ID":"49181","ELEMENT_SET_NO":"999","MEAN_ELEMENT_THEORY":"SGP4","LAUNCH_DATE":"2021-09-14","PERIOD":"96.108","MEAN_MOTION_DDOT":"0.0000000000000","PERIAPSIS":"570.021","SITE":"AFWTR","CLASSIFICATION_TYPE":"U","TIME_SYSTEM":"UTC","CENTER_NAME":"EARTH","TLE_LINE1":"1 49181U 21082BD  23131.95808871  .00000042  00000-0  11320-4 0  9999","OBJECT_NAME":"STARLINK-3059","ARG_OF_PERICENTER":"267.0276","REV_AT_EPOCH":"9247","ECCENTRICITY":"0.00029670","OBJECT_ID":"2021-082BD","INCLINATION":"70.0005","COUNTRY_CODE":"US","OBJECT_TYPE":"PAYLOAD","EPHEMERIS_TYPE":"0","RA_OF_ASC_NODE":"18.3478","SEMIMAJOR_AXIS":"6950.218","RCS_SIZE":"LARGE","MEAN_ANOMALY":"93.0544","DECAY_DATE":null,"FILE":"3905576","GP_ID":"231635204"},{"RCS_SIZE":"LARGE","DECAY_DATE":null,"MEAN_ANOMALY":"257.1495","FILE":"3905210","GP_ID":"231601669","INCLINATION":"53.2138","COUNTRY_CODE":"US","OBJECT_TYPE":"PAYLOAD","SEMIMAJOR_AXIS":"6917.863","EPHEMERIS_TYPE":"0","RA_OF_ASC_NODE":"187.6009","REV_AT_EPOCH":"8264","ECCENTRICITY":"0.00010860","OBJECT_ID":"2021-104A","OBJECT_NAME":"STARLINK-3151","ARG_OF_PERICENTER":"102.9618","TLE_LINE1":"1 49408U 21104A   23131.43304789  .00003464  00000-0  23560-3 0  9997","CENTER_NAME":"EARTH","TIME_SYSTEM":"UTC","MEAN_MOTION_DDOT":"0.0000000000000","PERIAPSIS":"538.977","SITE":"AFETR","CLASSIFICATION_TYPE":"U","MEAN_ELEMENT_THEORY":"SGP4","LAUNCH_DATE":"2021-11-13","PERIOD":"95.437","ELEMENT_SET_NO":"999","NORAD_CAT_ID":"49408","EPOCH":"2023-05-11T10:23:35.337696","MEAN_MOTION_DOT":"0.00003464","BSTAR":"0.00023560000000","REF_FRAME":"TEME","APOAPSIS":"540.479","MEAN_MOTION":"15.08845662","TLE_LINE2":"2 49408  53.2138 187.6009 0001086 102.9618 257.1495 15.08845662 82640"},{"INCLINATION":"53.2154","COUNTRY_CODE":"US","OBJECT_TYPE":"PAYLOAD","EPHEMERIS_TYPE":"0","RA_OF_ASC_NODE":"185.7352","SEMIMAJOR_AXIS":"6917.868","RCS_SIZE":"LARGE","DECAY_DATE":null,"MEAN_ANOMALY":"288.7939","FILE":"3905576","GP_ID":"231635725","REV_AT_EPOCH":"8271","ECCENTRICITY":"0.00006050","OBJECT_ID":"2021-104B","TLE_LINE1":"1 49409U 21104B   23131.84520630 -.00000267  00000-0  13062-5 0  9995","OBJECT_NAME":"STARLINK-3075","ARG_OF_PERICENTER":"71.3119","TIME_SYSTEM":"UTC","CENTER_NAME":"EARTH","MEAN_ELEMENT_THEORY":"SGP4","PERIOD":"95.437","LAUNCH_DATE":"2021-11-13","MEAN_MOTION_DDOT":"0.0000000000000","PERIAPSIS":"539.314","SITE":"AFETR","CLASSIFICATION_TYPE":"U","NORAD_CAT_ID":"49409","ELEMENT_SET_NO":"999","MEAN_MOTION_DOT":"-0.00000267","BSTAR":"0.00000130620000","EPOCH":"2023-05-11T20:17:05.824320","MEAN_MOTION":"15.08844070","TLE_LINE2":"2 49409  53.2154 185.7352 0000605  71.3119 288.7939 15.08844070 82713","REF_FRAME":"TEME","APOAPSIS":"540.151"}];
